OBJECT_NAME,OBJECT_ID,EPOCH,MEAN_MOTION,ECCENTRICITY,INCLINATION,RA_OF_ASC_NODE,ARG_OF_PERICENTER,MEAN_ANOMALY,EPHEMERIS_TYPE,CLASSIFICATION_TYPE,NORAD_CAT_ID,ELEMENT_SET_NO,REV_AT_EPOCH,BSTAR,MEAN_MOTION_DOT,MEAN_MOTION_DDOT
ZHONGXING-1D,2021-114A,2025-07-15T20:59:54.105792,1.00268422,.0002182,0.0452,229.9916,7.2088,141.8723,0,U,49505,999,1345,0,-.329E-5,0
STARLINK-3219,2021-115A,2025-07-15T05:58:03.831744,15.08838300,.0001405,53.2163,135.2552,88.4592,271.6561,0,U,49724,999,20079,.35499E-5,-.231E-5,0
STARLINK-3218,2021-115B,2025-07-16T04:45:14.467104,15.08838976,.0001386,53.2178,130.8782,90.5400,269.5751,0,U,49725,999,20094,.56323E-4,.609E-5,0
STARLINK-3242,2021-115D,2025-07-15T21:18:46.199808,15.08837910,.0001396,53.2177,142.1652,96.3124,263.8027,0,U,49727,999,19964,-.12154E-4,-.481E-5,0
STARLINK-3240,2021-115E,2025-07-15T13:27:08.204832,15.08836642,.0001448,53.2172,143.6346,84.9260,275.1897,0,U,49728,999,20070,.22618E-4,.72E-6,0
STARLINK-3251,2021-115F,2025-07-15T21:13:26.925888,15.08835295,.0001466,53.2176,142.0666,86.6164,273.4996,0,U,49729,999,19964,.55684E-5,-.199E-5,0
STARLINK-3249,2021-115G,2025-07-16T02:52:39.555264,15.08836298,.0001123,53.2158,141.3157,92.3921,267.7200,0,U,49730,999,20078,-.37677E-4,-.887E-5,0
STARLINK-3246,2021-115J,2025-07-15T03:12:27.053280,15.08838830,.0001391,53.2163,145.7073,86.5168,273.5984,0,U,49732,999,19952,.3526E-4,.273E-5,0
STARLINK-3252,2021-115K,2025-07-15T13:48:19.935072,15.08838591,.0001529,53.2173,143.5710,61.8182,298.2964,0,U,49733,999,20070,.38037E-4,.317E-5,0
STARLINK-3238,2021-115L,2025-07-15T19:02:19.029120,15.08835800,.000148,53.2182,132.6145,93.4491,266.6671,0,U,49734,999,19977,.28014E-4,.158E-5,0
STARLINK-3113,2021-115M,2025-07-16T03:56:11.563872,15.08838870,.000131,53.2169,140.8106,76.2202,283.8936,0,U,49735,999,20079,.17904E-4,-.3E-7,0
STARLINK-3148,2021-115N,2025-07-16T02:53:56.541120,15.08832708,.0001556,53.2176,131.0030,84.0278,276.0892,0,U,49736,999,20093,.16629E-4,-.23E-6,0
STARLINK-3225,2021-115P,2025-07-15T12:46:04.249632,15.08835150,.0001413,53.2174,133.7620,88.3343,271.7811,0,U,49737,999,19973,.18145E-4,.1E-7,0
STARLINK-3143,2021-115Q,2025-07-15T13:24:34.462944,15.08839337,.0001455,53.2173,133.8494,90.1728,269.9431,0,U,49738,999,19973,.3731E-4,.306E-5,0
STARLINK-3155,2021-115R,2025-07-15T06:07:17.988384,15.08841300,.0001283,53.2171,145.0077,79.8675,280.2462,0,U,49739,999,19954,.53031E-4,.556E-5,0
STARLINK-3226,2021-115S,2025-07-15T19:30:10.877760,15.08836391,.0001397,53.2171,132.4754,73.0964,287.0181,0,U,49740,999,19977,.31781E-4,.218E-5,0
STARLINK-3244,2021-115T,2025-07-15T05:06:25.245216,15.08845979,.0001627,53.2173,135.2045,87.4957,272.6222,0,U,49741,999,19968,-.96811E-5,-.442E-5,0
STARLINK-3202,2021-115U,2025-07-16T02:06:14.189472,15.08845522,.0001446,53.2169,131.2695,86.9110,273.2047,0,U,49742,999,20092,.79985E-4,.985E-5,0
STARLINK-3239,2021-115V,2025-07-15T12:58:01.964064,15.08836387,.0001415,53.2181,133.6569,83.5660,276.5493,0,U,49743,999,19973,.34028E-4,.254E-5,0
STARLINK-3231,2021-115W,2025-07-16T05:13:04.769184,15.08839275,.0001375,53.2169,130.5823,91.5895,268.5255,0,U,49744,999,20094,.39391E-4,.339E-5,0
STARLINK-3241,2021-115X,2025-07-15T19:35:28.730400,15.08842359,.0001386,53.2172,132.4610,83.6846,276.4304,0,U,49745,999,19977,-.5487E-4,-.1161E-4,0
STARLINK-3233,2021-115Y,2025-07-15T20:05:53.996064,15.08839263,.0001475,53.2176,132.3929,90.3442,269.7719,0,U,49746,999,19977,.95277E-6,-.273E-5,0
STARLINK-3247,2021-115Z,2025-07-16T02:11:32.569152,15.08838291,.0001566,53.2169,131.2539,87.1556,272.9616,0,U,49747,999,20092,.22712E-4,.73E-6,0
STARLINK-3248,2021-115AA,2025-07-16T04:50:26.514528,15.08842199,.0001319,53.2172,130.3322,87.4684,272.6459,0,U,49748,999,20095,.59686E-4,.662E-5,0
STARLINK-3250,2021-115AB,2025-07-16T02:55:21.700416,15.08835455,.0001463,53.2171,131.3565,88.9499,271.1660,0,U,49749,999,20092,.11273E-4,-.109E-5,0
STARLINK-3236,2021-115AC,2025-07-16T02:50:01.656672,15.08831609,.0001308,53.2175,131.1411,85.8073,274.3069,0,U,49750,999,20093,.68583E-5,-.179E-5,0
STARLINK-3229,2021-115AD,2025-07-15T02:31:20.513856,15.08838110,.0001495,53.2162,135.6031,76.3648,283.7511,0,U,49751,999,19967,.23542E-4,.87E-6,0
STARLINK-3209,2021-115AE,2025-07-16T04:47:55.632480,15.08837493,.0001478,53.2179,120.7758,95.0050,265.1111,0,U,49752,999,20108,.1889E-4,.13E-6,0
STARLINK-3200,2021-115AF,2025-07-15T06:03:19.549440,15.08838011,.0001487,53.2167,135.0177,90.8386,269.2777,0,U,49753,999,19969,-.11579E-4,-.472E-5,0
STARLINK-3193,2021-115AG,2025-07-16T04:51:51.610752,15.08841072,.0001422,53.2169,120.8581,90.7072,269.4083,0,U,49754,999,20108,.23155E-4,.81E-6,0
STARLINK-3210,2021-115AH,2025-07-16T04:36:00.581760,15.08838994,.0001468,53.2170,130.8507,92.1916,267.9245,0,U,49755,999,20094,.30232E-4,.193E-5,0
STARLINK-3207,2021-115AJ,2025-07-15T22:40:54.201792,15.08837164,.0001416,53.2171,121.9111,91.3550,268.7605,0,U,49756,999,19993,-.16892E-4,-.557E-5,0
STARLINK-3197,2021-115AK,2025-07-15T22:31:41.191680,15.08837208,.000152,53.2167,121.9488,95.5490,264.5675,0,U,49757,999,19993,-.1148E-4,-.471E-5,0
STARLINK-3194,2021-115AL,2025-07-15T22:51:30.382272,15.08833644,.0001496,53.2174,121.8775,90.5872,269.5291,0,U,49758,999,19993,-.98407E-5,-.445E-5,0
STARLINK-3204,2021-115AM,2025-07-15T22:35:36.006144,15.08838611,.0001357,53.2167,121.9266,90.3832,269.7316,0,U,49759,999,19993,.20799E-4,.43E-6,0
STARLINK-3199,2021-115AN,2025-07-15T23:02:06.197280,15.08835076,.0001459,53.2174,121.8430,87.4555,272.6604,0,U,49760,999,19994,-.52204E-5,-.371E-5,0
STARLINK-3203,2021-115AP,2025-07-15T22:46:11.915328,15.08828557,.0001338,53.2168,121.8944,88.9356,271.1789,0,U,49761,999,19993,-.84803E-4,-.1637E-4,0
STARLINK-3195,2021-115AQ,2025-07-15T12:05:00.289248,15.08831005,.0001319,53.2166,123.8916,72.0866,288.0270,0,U,49762,999,19987,-.28051E-4,-.734E-5,0
STARLINK-3198,2021-115AR,2025-07-15T22:56:48.123456,15.08835130,.0001413,53.2174,121.8587,88.3511,271.7643,0,U,49763,999,19994,.17253E-4,-.13E-6,0
STARLINK-3227,2021-115AT,2025-07-16T02:19:32.927232,15.08839082,.0001435,53.2175,121.2383,91.9098,268.2059,0,U,49765,999,20107,-.15221E-7,-.288E-5,0
STARLINK-3190,2021-115AU,2025-07-15T21:54:35.811072,15.08842792,.0001878,53.2176,122.0612,88.7825,271.3383,0,U,49766,999,19993,-.39013E-4,-.909E-5,0
STARLINK-3192,2021-115AV,2025-07-16T02:28:46.225920,15.08837736,.0001499,53.2178,121.1977,90.9193,269.1971,0,U,49767,999,20107,.59576E-4,.66E-5,0
STARLINK-3196,2021-115AW,2025-07-16T04:25:21.264096,15.08844296,.0001441,53.2178,120.8330,90.4523,269.6634,0,U,49768,999,20108,.66366E-4,.769E-5,0
STARLINK-3208,2021-115AX,2025-07-15T23:40:35.026464,15.08835496,.0001383,53.2172,121.7702,90.9112,269.2039,0,U,49769,999,20105,.29221E-4,.177E-5,0
STARLINK-3191,2021-115AY,2025-07-15T19:05:01.139712,15.08846348,.0001303,53.2176,122.6345,94.3424,265.7717,0,U,49770,999,20103,.20242E-4,.34E-6,0
STARLINK-3201,2021-115AZ,2025-07-15T19:03:38.053152,15.08839706,.0001414,53.2171,122.5891,87.7551,272.3603,0,U,49771,999,19991,.44963E-4,.428E-5,0
GLOBAL-12,2021-115BA,2025-07-15T06:50:49.081056,15.38367608,.0001135,53.1978,201.9324,347.1494,12.9482,0,U,49772,999,20384,.29232E-3,.10845E-3,0
GLOBAL-13,2021-115BB,2025-07-15T17:04:10.564032,15.38358442,.0001238,53.1989,201.2041,72.1955,287.9185,0,U,49773,999,20389,.27035E-3,.9996E-4,0
GSAT0223 (GALILEO 27),2021-116A,2025-07-15T20:37:52.770720,1.70475863,.0002434,57.2567,350.7587,185.7595,162.4261,0,U,49809,999,2244,0,-.75E-6,0
GSAT0224 (GALILEO 28),2021-116B,2025-07-13T22:24:37.981152,1.70476044,.0001893,57.2587,350.8090,167.9226,190.8787,0,U,49810,999,2243,0,-.73E-6,0
STPSAT-6,2021-118A,2025-07-15T12:35:38.895072,1.00270468,.0000672,0.0190,53.0880,242.7304,74.9184,0,U,49817,999,1319,0,-.37E-6,0
LDPE-1,2021-118B,2025-07-15T19:47:10.999104,1.00647498,.0006684,2.8615,83.0465,10.1510,74.3221,0,U,49818,999,1326,0,-.276E-5,0
GLOBAL-17,2021-120A,2025-07-16T03:13:57.808704,15.35242746,.0003939,41.9976,224.6319,346.6332,13.4401,0,U,49949,999,20297,.26487E-3,.9017E-4,0
GLOBAL-16,2021-120B,2025-07-16T02:39:35.005248,15.34617136,.0005747,41.9971,224.4385,341.0053,19.0570,0,U,49950,999,20296,.26478E-3,.8833E-4,0
IXPE,2021-121A,2025-07-16T06:00:02.000160,15.05763831,.0008037,0.2313,330.1431,48.0826,130.6726,0,U,49954,999,19726,.49756E-3,.8306E-4,0
SHIJIAN-6 05A (SJ-6 05A),2021-122A,2025-07-15T22:27:59.201568,14.97600025,.0001707,97.3641,178.1297,102.8346,257.3068,0,U,49961,999,19839,.98424E-4,.1096E-4,0
SHIJIAN-6 05B (SJ-6 05B),2021-122B,2025-07-15T21:33:50.265216,15.10032422,.000291,97.3453,185.0627,108.4136,251.7411,0,U,49962,999,19896,.97345E-4,.1522E-4,0
EXPRESS AMU-7,2021-123A,2025-07-15T15:40:21.385920,1.00268296,.0000377,0.0147,34.3754,241.7751,37.6750,0,U,50001,999,1316,0,-.236E-5,0
EXPRESS AMU-3,2021-123B,2025-07-15T21:32:32.042976,1.00269479,.0000128,0.0151,348.7413,57.1383,314.1214,0,U,50002,999,1313,0,-.313E-5,0
TIANLIAN 2-02,2021-124A,2025-07-15T18:38:38.423040,1.00271631,.0001428,0.0781,249.3293,318.9953,176.1799,0,U,50005,999,1324,0,-.6E-7,0
STARLINK-3317,2021-125A,2025-07-15T19:27:32.217984,15.08836616,.000098,53.2159,232.5103,80.8848,279.2255,0,U,50156,999,20087,.5381E-4,.569E-5,0
STARLINK-3313,2021-125B,2025-07-16T06:00:02.000160,15.24601807,.0000866,53.2174,240.0008,36.3193,341.4393,0,U,50157,999,19768,.68659E-1,.1891123E-1,0
STARLINK-3309,2021-125C,2025-07-15T19:47:24.997632,15.08833501,.0001029,53.2163,242.4590,82.0845,278.0264,0,U,50158,999,20076,.18246E-4,.3E-7,0
STARLINK-3297,2021-125D,2025-07-15T19:42:06.281856,15.08835602,.0001045,53.2158,242.4746,85.7021,274.4090,0,U,50159,999,20069,.22604E-4,.72E-6,0
STARLINK-3304,2021-125F,2025-07-15T19:56:38.114016,15.08821406,.0001087,53.2162,242.4211,91.0258,269.0859,0,U,50161,999,20069,.53181E-4,.558E-5,0
STARLINK-3306,2021-125H,2025-07-16T05:05:05.498880,15.08836240,.0000994,53.2159,220.7030,70.5212,289.5887,0,U,50163,999,20055,.27539E-4,.151E-5,0
STARLINK-3298,2021-125K,2025-07-16T03:32:22.219296,15.08841778,.0000845,53.2169,241.0011,87.9587,272.1502,0,U,50165,999,19766,-.78424E-5,-.412E-5,0
